SL-14 R/B               
1 20511U 90018B   26168.34893713  .00000307  00000+0  35440-4 0  9997
2 20511  82.5210 129.9563 0017446 121.2350 239.0577 14.82216171937342
HST                     
1 20580U 90037B   26168.14321654  .00005620  00000+0  17616-3 0  9999
2 20580  28.4720  80.8753 0001815 141.8279 218.2446 15.30747004788560
SL-16 R/B               
1 20625U 90046B   26168.08955207  .00000116  00000+0  84629-4 0  9993
2 20625  70.9999  89.1530 0013350 161.9416 198.2184 14.15026589862455
COSMOS 2084             
1 20663U 90055A   26167.86230090  .00001734  00000+0  13175-3 0  9990
2 20663  62.7899 357.1999 0005579 278.3631  81.6837 15.06114812951253
SL-6 R/B(2)             
1 20666U 90055D   26168.51472818  .00001200  00000+0  99721-4 0  9992
2 20666  62.7823 274.2619 0040711   5.1883 354.9630 15.04003852953206
SL-8 R/B                
1 20775U 90078B   26168.46324706  .00020481  00000+0  57730-3 0  9999
2 20775  82.9016 161.3960 0350861  37.5373 324.9789 14.92330883824160
SL-8 R/B                
1 21088U 91006B   26168.36595087  .00000057  00000+0  41152-4 0  9999
2 21088  82.9425  95.9007 0023702 114.0768   7.0285 13.77505871777795
SL-14 R/B               
1 21423U 91042B   26168.35549693  .00000297  00000+0  34583-4 0  9999
2 21423  82.4927 126.7376 0015412 274.2345  85.7108 14.81902557867831
INTERCOSMOS 25          
1 21819U 91086A   26167.94672588  .00000698  00000+0  13921-3 0  9997
2 21819  82.6051 249.9553 1484021 262.9134  80.1493 12.12195316508716
SL-8 R/B                
1 21876U 92008B   26168.49897953  .00000131  00000+0  11887-3 0  9992
2 21876  82.9262 193.5557 0033860 213.7960 254.6254 13.75977041723147
SL-8 R/B                
1 21938U 92020B   26168.13696181  .00000077  00000+0  64058-4 0  9994
2 21938  82.9305  79.8947 0029732  22.7202  88.6847 13.75548825714803
USA 81                  
1 21949U 92023A   26168.13513768  .00000149  00000+0  47620-4 0  9994
2 21949  85.0075  74.0375 0002755  84.6017 275.5490 14.32398154109027
COSMOS 2219             
1 22219U 92076A   26168.40283460  .00000278  00000+0  17054-3 0  9996
2 22219  71.0579 169.6209 0016609  43.8060 316.4377 14.14099164732476
SL-16 R/B               
1 22285U 92093B   26168.38378014 -.00000291  00000+0 -12464-3 0  9992
2 22285  71.0197 154.9786 0003942 188.1315 171.9745 14.15461119727262
SL-16 R/B               
1 22566U 93016B   26168.01050093  .00000267  00000+0  16149-3 0  9999
2 22566  71.0085   6.5786 0010205 183.7871 176.3176 14.15314120716220
COSMOS 2242             
1 22626U 93024A   26168.51500680  .00001310  00000+0  11164-3 0  9994
2 22626  82.5179 171.2292 0015338 335.1626  24.8856 14.96904128795325
SL-16 R/B               
1 22803U 93059B   26168.41933214 -.00000088  00000+0 -19989-4 0  9998
2 22803  70.9886 160.8140 0015209  53.4989 306.7533 14.17248281693665
ARIANE 40 R/B           
1 22830U 93061H   26168.13556857  .00000149  00000+0  70281-4 0  9992
2 22830  98.4819 234.9936 0010447 356.3292   3.7814 14.32907923708343
SL-16 R/B               
1 23405U 94077B   26168.33272464  .00000107  00000+0  78919-4 0  9990
2 23405  70.9809 142.8561 0002928 327.7854  32.3089 14.15572187630334
